{"type": "FeatureCollection", "features": [ {"type": "Feature", "properties": {"norad_id": 66649, "name": "COSMOS 2599 (RODNIK-S 24)", "group": "last-30-days", "lat": 24.036392668711613, "lon": -69.90786136593923, "alt_km": 1498.1725444541926, "timestamp": "2025-12-12T07:43:19.259035+00:00", "meta": {"OBJECT_NAME": "COSMOS 2599 (RODNIK-S 24)", "OBJECT_ID": "2025-273C", "EPOCH": "2025-12-11T21:55:21.925344", "MEAN_MOTION": 12.41672474, "ECCENTRICITY": 0.00078654, "INCLINATION": 82.5028, "RA_OF_ASC_NODE": 286.9787, "ARG_OF_PERICENTER": 300.1645, "MEAN_ANOMALY": 59.8654, "EPHEMERIS_TYPE": 0, "CLASSIFICATION_TYPE": "U", "NORAD_CAT_ID": 66649, "ELEMENT_SET_NO": 999, "REV_AT_EPOCH": 203, "BSTAR": 0.00012924492, "MEAN_MOTION_DOT": 2.7e-07, "MEAN_MOTION_DDOT": 0}, "tle": {"line1": "1 66649U 25273C   25345.91344821  .00000027  00000+0  12924-3 0  9990", "line2": "2 66649  82.5028 286.9787 0007865 300.1645  59.8654 12.41672474  2030"}}, "geometry": {"type": "Point", "coordinates": [-69.90786136593923, 24.036392668711613]}}, {"type": "Feature", "properties": {"norad_id": 66650, "name": "BEE-1000", "group": "last-30-days", "lat": -28.397199564777623, "lon": 89.3009311455451, "alt_km": 593.500132188613, "timestamp": "2025-12-12T07:43:19.259046+00:00", "meta": {"OBJECT_NAME": "BEE-1000", "OBJECT_ID": "2025-274A", "EPOCH": "2025-12-11T17:54:33.802848", "MEAN_MOTION": 14.91655948, "ECCENTRICITY": 0.00103819, "INCLINATION": 97.7385, "RA_OF_ASC_NODE": 272.9521, "ARG_OF_PERICENTER": 255.1858, "MEAN_ANOMALY": 104.8211, "EPHEMERIS_TYPE": 0, "CLASSIFICATION_TYPE": "U", "NORAD_CAT_ID": 66650, "ELEMENT_SET_NO": 999, "REV_AT_EPOCH": 225, "BSTAR": 0.00031673301, "MEAN_MOTION_DOT": 3.13e-05, "MEAN_MOTION_DDOT": 0}, "tle": {"line1": "1 66650U 25274A   25345.74622457  .00003130  00000+0  31673-3 0  9998", "line2": "2 66650  97.7385 272.9521 0010381 255.1858 104.8211 14.91655948  2257"}}, "geometry": {"type": "Point", "coordinates": [89.3009311455451, -28.397199564777623]}}, {"type": "Feature", "properties": {"norad_id": 66651, "name": "2025-274B", "group": "last-30-days", "lat": -33.10732880668698, "lon": 88.43143979360025, "alt_km": 592.766809512832, "timestamp": "2025-12-12T07:43:19.259056+00:00", "meta": {"OBJECT_NAME": "2025-274B", "OBJECT_ID": "2025-274B", "EPOCH": "2025-12-11T16:16:46.123104", "MEAN_MOTION": 14.91785025, "ECCENTRICITY": 0.0010633, "INCLINATION": 97.7379, "RA_OF_ASC_NODE": 272.8866, "ARG_OF_PERICENTER": 254.4704, "MEAN_ANOMALY": 105.5341, "EPHEMERIS_TYPE": 0, "CLASSIFICATION_TYPE": "U", "NORAD_CAT_ID": 66651, "ELEMENT_SET_NO": 999, "REV_AT_EPOCH": 224, "BSTAR": 0.0006581767, "MEAN_MOTION_DOT": 6.59e-05, "MEAN_MOTION_DDOT": 0}, "tle": {"line1": "1 66651U 25274B   25345.67831161  .00006590  00000+0  65818-3 0  9996", "line2": "2 66651  97.7379 272.8866 0010633 254.4704 105.5341 14.91785025  2245"}}, "geometry": {"type": "Point", "coordinates": [88.43143979360025, -33.10732880668698]}}, {"type": "Feature", "properties": {"norad_id": 66652, "name": "2025-274C", "group": "last-30-days", "lat": -40.548798741997885, "lon": 86.84137321042917, "alt_km": 592.9750403549724, "timestamp": "2025-12-12T07:43:19.259066+00:00", "meta": {"OBJECT_NAME": "2025-274C", "OBJECT_ID": "2025-274C", "EPOCH": "2025-12-11T17:51:23.187168", "MEAN_MOTION": 14.91888932, "ECCENTRICITY": 0.00103118, "INCLINATION": 97.7385, "RA_OF_ASC_NODE": 272.9551, "ARG_OF_PERICENTER": 261.2729, "MEAN_ANOMALY": 98.7322, "EPHEMERIS_TYPE": 0, "CLASSIFICATION_TYPE": "U", "NORAD_CAT_ID": 66652, "ELEMENT_SET_NO": 999, "REV_AT_EPOCH": 225, "BSTAR": 0.00036360506, "MEAN_MOTION_DOT": 3.623e-05, "MEAN_MOTION_DDOT": 0}, "tle": {"line1": "1 66652U 25274C   25345.74401837  .00003623  00000+0  36361-3 0  9993", "line2": "2 66652  97.7385 272.9551 0010311 261.2729  98.7322 14.91888932  2255"}}, "geometry": {"type": "Point", "coordinates": [86.84137321042917, -40.548798741997885]}}, {"type": "Feature", "properties": {"norad_id": 66653, "name": "2025-274D", "group": "last-30-days", "lat": -40.92637915563355, "lon": 86.75132621760619, "alt_km": 592.131703614039, "timestamp": "2025-12-12T07:43:19.259076+00:00", "meta": {"OBJECT_NAME": "2025-274D", "OBJECT_ID": "2025-274D", "EPOCH": "2025-12-11T16:14:42.336096", "MEAN_MOTION": 14.91896866, "ECCENTRICITY": 0.00111829, "INCLINATION": 97.7384, "RA_OF_ASC_NODE": 272.8891, "ARG_OF_PERICENTER": 257.4696, "MEAN_ANOMALY": 102.5272, "EPHEMERIS_TYPE": 0, "CLASSIFICATION_TYPE": "U", "NORAD_CAT_ID": 66653, "ELEMENT_SET_NO": 999, "REV_AT_EPOCH": 224, "BSTAR": 0.00045752269, "MEAN_MOTION_DOT": 4.576e-05, "MEAN_MOTION_DDOT": 0}, "tle": {"line1": "1 66653U 25274D   25345.67687889  .00004576  00000+0  45752-3 0  9991", "line2": "2 66653  97.7384 272.8891 0011182 257.4696 102.5272 14.91896866  2240"}}, "geometry": {"type": "Point", "coordinates": [86.75132621760619, -40.92637915563355]}}, {"type": "Feature", "properties": {"norad_id": 66654, "name": "JACK E", "group": "last-30-days", "lat": -50.16710910183955, "lon": 84.14449398687708, "alt_km": 591.0221594868535, "timestamp": "2025-12-12T07:43:19.259089+00:00", "meta": {"OBJECT_NAME": "JACK E", "OBJECT_ID": "2025-274E", "EPOCH": "2025-12-11T16:12:17.136576", "MEAN_MOTION": 14.92072341, "ECCENTRICITY": 0.00117825, "INCLINATION": 97.7385, "RA_OF_ASC_NODE": 272.8918, "ARG_OF_PERICENTER": 259.1975, "MEAN_ANOMALY": 100.7918, "EPHEMERIS_TYPE": 0, "CLASSIFICATION_TYPE": "U", "NORAD_CAT_ID": 66654, "ELEMENT_SET_NO": 999, "REV_AT_EPOCH": 224, "BSTAR": 0.0004718704, "MEAN_MOTION_DOT": 4.743e-05, "MEAN_MOTION_DDOT": 0}, "tle": {"line1": "1 66654U 25274E   25345.67519834  .00004743  00000+0  47187-3 0  9996", "line2": "2 66654  97.7385 272.8918 0011782 259.1975 100.7918 14.92072341  2249"}}, "geometry": {"type": "Point", "coordinates": [84.14449398687708, -50.16710910183955]}}, {"type": "Feature", "properties": {"norad_id": 66655, "name": "2025-274F", "group": "last-30-days", "lat": -56.60895256100672, "lon": 81.63233517115587, "alt_km": 603.098613175267, "timestamp": "2025-12-12T07:43:19.259099+00:00", "meta": {"OBJECT_NAME": "2025-274F", "OBJECT_ID": "2025-274F", "EPOCH": "2025-12-10T14:24:20.623680", "MEAN_MOTION": 14.91412977, "ECCENTRICITY": 0.0004698, "INCLINATION": 97.7323, "RA_OF_ASC_NODE": 271.8405, "ARG_OF_PERICENTER": 22.2473, "MEAN_ANOMALY": 337.8948, "EPHEMERIS_TYPE": 0, "CLASSIFICATION_TYPE": "U", "NORAD_CAT_ID": 66655, "ELEMENT_SET_NO": 999, "REV_AT_EPOCH": 208, "BSTAR": 1.9321e-05, "MEAN_MOTION_DOT": 1.38e-06, "MEAN_MOTION_DDOT": 0}, "tle": {"line1": "1 66655U 25274F   25344.60023870  .00000138  00000+0  19321-4 0  9993", "line2": "2 66655  97.7323 271.8405 0004698  22.2473 337.8948 14.91412977  2082"}}, "geometry": {"type": "Point", "coordinates": [81.63233517115587, -56.60895256100672]}}, {"type": "Feature", "properties": {"norad_id": 66656, "name": "2025-274G", "group": "last-30-days", "lat": -60.198236128993976, "lon": 79.79650501225953, "alt_km": 589.7927541684521, "timestamp": "2025-12-12T07:43:19.259109+00:00", "meta": {"OBJECT_NAME": "2025-274G", "OBJECT_ID": "2025-274G", "EPOCH": "2025-12-11T14:33:04.434912", "MEAN_MOTION": 14.92262161, "ECCENTRICITY": 0.00124031, "INCLINATION": 97.7384, "RA_OF_ASC_NODE": 272.8279, "ARG_OF_PERICENTER": 261.3024, "MEAN_ANOMALY": 98.679, "EPHEMERIS_TYPE": 0, "CLASSIFICATION_TYPE": "U", "NORAD_CAT_ID": 66656, "ELEMENT_SET_NO": 999, "REV_AT_EPOCH": 223, "BSTAR": 0.00050921088, "MEAN_MOTION_DOT": 5.148e-05, "MEAN_MOTION_DDOT": 0}, "tle": {"line1": "1 66656U 25274G   25345.60630133  .00005148  00000+0  50921-3 0  9997", "line2": "2 66656  97.7384 272.8279 0012403 261.3024  98.6790 14.92262161  2234"}}, "geometry": {"type": "Point", "coordinates": [79.79650501225953, -60.198236128993976]}}, {"type": "Feature", "properties": {"norad_id": 66657, "name": "SPIRONE", "group": "last-30-days", "lat": -69.69272880410853, "lon": 71.97635655511004, "alt_km": 590.864670279374, "timestamp": "2025-12-12T07:43:19.259123+00:00", "meta": {"OBJECT_NAME": "SPIRONE", "OBJECT_ID": "2025-274H", "EPOCH": "2025-12-11T17:43:35.609376", "MEAN_MOTION": 14.92442635, "ECCENTRICITY": 0.00108031, "INCLINATION": 97.7381, "RA_OF_ASC_NODE": 272.9615, "ARG_OF_PERICENTER": 279.797, "MEAN_ANOMALY": 80.2029, "EPHEMERIS_TYPE": 0, "CLASSIFICATION_TYPE": "U", "NORAD_CAT_ID": 66657, "ELEMENT_SET_NO": 999, "REV_AT_EPOCH": 225, "BSTAR": 0.0004937733, "MEAN_MOTION_DOT": 5.011e-05, "MEAN_MOTION_DDOT": 0}, "tle": {"line1": "1 66657U 25274H   25345.73860659  .00005011  00000+0  49377-3 0  9992", "line2": "2 66657  97.7381 272.9615 0010803 279.7970  80.2029 14.92442635  2252"}}, "geometry": {"type": "Point", "coordinates": [71.97635655511004, -69.69272880410853]}}, {"type": "Feature", "properties": {"norad_id": 66658, "name": "2025-274J", "group": "last-30-days", "lat": -78.11193283864218, "lon": 53.30449293912324, "alt_km": 589.6630607769457, "timestamp": "2025-12-12T07:43:19.259133+00:00", "meta": {"OBJECT_NAME": "2025-274J", "OBJECT_ID": "2025-274J", "EPOCH": "2025-12-11T17:41:03.726816", "MEAN_MOTION": 14.92613825, "ECCENTRICITY": 0.00113728, "INCLINATION": 97.7381, "RA_OF_ASC_NODE": 272.9639, "ARG_OF_PERICENTER": 282.7492, "MEAN_ANOMALY": 77.2456, "EPHEMERIS_TYPE": 0, "CLASSIFICATION_TYPE": "U", "NORAD_CAT_ID": 66658, "ELEMENT_SET_NO": 999, "REV_AT_EPOCH": 225, "BSTAR": 0.00047071254, "MEAN_MOTION_DOT": 4.796e-05, "MEAN_MOTION_DDOT": 0}, "tle": {"line1": "1 66658U 25274J   25345.73684869  .00004796  00000+0  47071-3 0  9998", "line2": "2 66658  97.7381 272.9639 0011372 282.7492  77.2456 14.92613825  2255"}}, "geometry": {"type": "Point", "coordinates": [53.30449293912324, -78.11193283864218]}}]}